{
    "links": {
        "self": "http://www.neowsapp.com/rest/v1/neo/54054527?api_key=iIulBulltgU6a56xZRHN4H3l9WmuAYTsLGpBGhQ2"
    },
    "id": "54054527",
    "neo_reference_id": "54054527",
    "name": "(2020 SJ2)",
    "designation": "2020 SJ2",
    "nasa_jpl_url": "http://ssd.jpl.nasa.gov/sbdb.cgi?sstr=54054527",
    "absolute_magnitude_h": 26.678,
    "estimated_diameter": {
        "kilometers": {
            "estimated_diameter_min": 0.0122731199,
            "estimated_diameter_max": 0.0274435304
        },
        "meters": {
            "estimated_diameter_min": 12.2731198889,
            "estimated_diameter_max": 27.4435303676
        },
        "miles": {
            "estimated_diameter_min": 0.0076261608,
            "estimated_diameter_max": 0.0170526139
        },
        "feet": {
            "estimated_diameter_min": 40.2661426563,
            "estimated_diameter_max": 90.0378321712
        }
    },
    "is_potentially_hazardous_asteroid": false,
    "close_approach_data": [
        {
            "close_approach_date": "2020-09-21",
            "close_approach_date_full": "2020-Sep-21 16:54",
            "epoch_date_close_approach": 1600707240000,
            "relative_velocity": {
                "kilometers_per_second": "9.5239625799",
                "kilometers_per_hour": "34286.265287617",
                "miles_per_hour": "21304.151894964"
            },
            "miss_distance": {
                "astronomical": "0.0096804707",
                "lunar": "3.7657031023",
                "kilometers": "1448177.797317409",
                "miles": "899855.9563778842"
            },
            "orbiting_body": "Earth"
        },
        {
            "close_approach_date": "2023-01-11",
            "close_approach_date_full": "2023-Jan-11 07:50",
            "epoch_date_close_approach": 1673423400000,
            "relative_velocity": {
                "kilometers_per_second": "20.113613263",
                "kilometers_per_hour": "72409.0077469505",
                "miles_per_hour": "44992.1415080982"
            },
            "miss_distance": {
                "astronomical": "0.4017624981",
                "lunar": "156.2856117609",
                "kilometers": "60102813.961639047",
                "miles": "37346156.8314589686"
            },
            "orbiting_body": "Earth"
        },
        {
            "close_approach_date": "2059-03-01",
            "close_approach_date_full": "2059-Mar-01 15:00",
            "epoch_date_close_approach": 2813756400000,
            "relative_velocity": {
                "kilometers_per_second": "9.5299040819",
                "kilometers_per_hour": "34307.6546946648",
                "miles_per_hour": "21317.4424406932"
            },
            "miss_distance": {
                "astronomical": "0.0708734032",
                "lunar": "27.5697538448",
                "kilometers": "10602510.158371184",
                "miles": "6588094.3184189792"
            },
            "orbiting_body": "Mars"
        },
        {
            "close_approach_date": "2123-12-01",
            "close_approach_date_full": "2123-Dec-01 10:14",
            "epoch_date_close_approach": 4857099240000,
            "relative_velocity": {
                "kilometers_per_second": "11.165775125",
                "kilometers_per_hour": "40196.7904501717",
                "miles_per_hour": "24976.7223772192"
            },
            "miss_distance": {
                "astronomical": "0.093234209",
                "lunar": "36.268107301",
                "kilometers": "13947639.07753483",
                "miles": "8666661.044367454"
            },
            "orbiting_body": "Mars"
        },
        {
            "close_approach_date": "2153-08-26",
            "close_approach_date_full": "2153-Aug-26 07:13",
            "epoch_date_close_approach": 5795478780000,
            "relative_velocity": {
                "kilometers_per_second": "20.2109798367",
                "kilometers_per_hour": "72759.5274122579",
                "miles_per_hour": "45209.9407967999"
            },
            "miss_distance": {
                "astronomical": "0.3821430014",
                "lunar": "148.6536275446",
                "kilometers": "57167779.044847018",
                "miles": "35522410.7023961284"
            },
            "orbiting_body": "Earth"
        }
    ],
    "orbital_data": {
        "orbit_id": "4",
        "orbit_determination_date": "2020-09-23 07:12:40",
        "first_observation_date": "2020-09-20",
        "last_observation_date": "2020-09-22",
        "data_arc_in_days": 2,
        "observations_used": 80,
        "orbit_uncertainty": "7",
        "minimum_orbit_intersection": ".00754681",
        "jupiter_tisserand_invariant": "4.155",
        "epoch_osculation": "2459000.5",
        "eccentricity": ".4385748053998363",
        "semi_major_axis": "1.65163938986651",
        "inclination": "7.281508018974026",
        "ascending_node_longitude": "357.1352634297222",
        "orbital_period": "775.3026609994311",
        "perihelion_distance": ".9272719658651007",
        "perihelion_argument": "45.07934256243964",
        "aphelion_distance": "2.376006813867919",
        "perihelion_time": "2459148.616199112443",
        "mean_anomaly": "291.2244954612394",
        "mean_motion": ".4643347922164093",
        "equinox": "J2000",
        "orbit_class": {
            "orbit_class_type": "APO",
            "orbit_class_description": "Near-Earth asteroid orbits which cross the Earth’s orbit similar to that of 1862 Apollo",
            "orbit_class_range": "a (semi-major axis) > 1.0 AU; q (perihelion) < 1.017 AU"
        }
    },
    "is_sentry_object": false
}